CTC1_L_00148001-01
1 30540U 26519GR  26070.40832176  .00000000  00000+0  00000-0 0  9990
2 30540  55.0000   0.0000 0000000   0.0000   0.0000 14.06899812    13
CTC1_L_00148001-02
1 30541U 22323IX  26070.40832176  .00000000  00000+0  00000-0 0  9990
2 30541  55.0000   0.0000 0000000   0.0000  90.0000 14.06899812    13
CTC1_L_00148001-03
1 30542U 23352OR  26070.40832176  .00000000  00000+0  00000-0 0  9994
2 30542  55.0000   0.0000 0000000   0.0000 180.0000 14.06899812    14
CTC1_L_00148001-04
1 30543U 24668SP  26070.40832176  .00000000  00000+0  00000-0 0  9996
2 30543  55.0000   0.0000 0000000   0.0000 270.0000 14.06899812    15
CTC1_L_00148002-01
1 30544U 23948BC  26070.40832176  .00000000  00000+0  00000-0 0  9997
2 30544  55.0000  12.0000 0000000   0.0000  12.0000 14.06899812    13
CTC1_L_00148002-02
1 30545U 22201JU  26070.40832176  .00000000  00000+0  00000-0 0  9999
2 30545  55.0000  12.0000 0000000   0.0000 102.0000 14.06899812    14
CTC1_L_00148002-03
1 30546U 22854JE  26070.40832176  .00000000  00000+0  00000-0 0  9994
2 30546  55.0000  12.0000 0000000   0.0000 192.0000 14.06899812    14
CTC1_L_00148002-04
1 30547U 23603ZA  26070.40832176  .00000000  00000+0  00000-0 0  9998
2 30547  55.0000  12.0000 0000000   0.0000 282.0000 14.06899812    15
CTC1_L_00148003-01
1 30548U 24070TD  26070.40832176  .00000000  00000+0  00000-0 0  9998
2 30548  55.0000  24.0000 0000000   0.0000  24.0000 14.06899812    13
CTC1_L_00148003-02
1 30549U 22686QF  26070.40832176  .00000000  00000+0  00000-0 0  9990
2 30549  55.0000  24.0000 0000000   0.0000 114.0000 14.06899812    14
CTC1_L_00148003-03
1 30550U 24046PJ  26070.40832176  .00000000  00000+0  00000-0 0  9994
2 30550  55.0000  24.0000 0000000   0.0000 204.0000 14.06899812    16
CTC1_L_00148003-04
1 30551U 25947ZI  26070.40832176  .00000000  00000+0  00000-0 0  9996
2 30551  55.0000  24.0000 0000000   0.0000 294.0000 14.06899812    16
CTC1_L_00148004-01
1 30552U 25548WK  26070.40832176  .00000000  00000+0  00000-0 0  9994
2 30552  55.0000  36.0000 0000000   0.0000  36.0000 14.06899812    14
CTC1_L_00148004-02
1 30553U 25751SF  26070.40832176  .00000000  00000+0  00000-0 0  9991
2 30553  55.0000  36.0000 0000000   0.0000 126.0000 14.06899812    15
CTC1_L_00148004-03
1 30554U 26457JZ  26070.40832176  .00000000  00000+0  00000-0 0  9996
2 30554  55.0000  36.0000 0000000   0.0000 216.0000 14.06899812    16
CTC1_L_00148004-04
1 30555U 26364CK  26070.40832176  .00000000  00000+0  00000-0 0  9994
2 30555  55.0000  36.0000 0000000   0.0000 306.0000 14.06899812    17
CTC1_L_00148005-01
1 30556U 23759UO  26070.40832176  .00000000  00000+0  00000-0 0  9990
2 30556  55.0000  48.0000 0000000   0.0000  48.0000 14.06899812    14
CTC1_L_00148005-02
1 30557U 22558EH  26070.40832176  .00000000  00000+0  00000-0 0  9997
2 30557  55.0000  48.0000 0000000   0.0000 138.0000 14.06899812    15
CTC1_L_00148005-03
1 30558U 26710VT  26070.40832176  .00000000  00000+0  00000-0 0  9992
2 30558  55.0000  48.0000 0000000   0.0000 228.0000 14.06899812    16
CTC1_L_00148005-04
1 30559U 22946YU  26070.40832176  .00000000  00000+0  00000-0 0  9990
2 30559  55.0000  48.0000 0000000   0.0000 318.0000 14.06899812    17
CTC1_L_00148006-01
1 30560U 25845X   26070.40832176  .00000000  00000+0  00000-0 0  9993
2 30560  55.0000  60.0000 0000000   0.0000  60.0000 14.06899812    17
CTC1_L_00148006-02
1 30561U 24241TW  26070.40832176  .00000000  00000+0  00000-0 0  9993
2 30561  55.0000  60.0000 0000000   0.0000 150.0000 14.06899812    18
CTC1_L_00148006-03
1 30562U 25268IW  26070.40832176  .00000000  00000+0  00000-0 0  9994
2 30562  55.0000  60.0000 0000000   0.0000 240.0000 14.06899812    19
CTC1_L_00148006-04
1 30563U 25891JR  26070.40832176  .00000000  00000+0  00000-0 0  9997
2 30563  55.0000  60.0000 0000000   0.0000 330.0000 14.06899812    10
CTC1_L_00148007-01
1 30564U 24669DU  26070.40832176  .00000000  00000+0  00000-0 0  9990
2 30564  55.0000  72.0000 0000000   0.0000  72.0000 14.06899812    17
CTC1_L_00148007-02
1 30565U 24598FZ  26070.40832176  .00000000  00000+0  00000-0 0  9992
2 30565  55.0000  72.0000 0000000   0.0000 162.0000 14.06899812    18
CTC1_L_00148007-03
1 30566U 25096VA  26070.40832176  .00000000  00000+0  00000-0 0  9997
2 30566  55.0000  72.0000 0000000   0.0000 252.0000 14.06899812    19
CTC1_L_00148007-04
1 30567U 26375IG  26070.40832176  .00000000  00000+0  00000-0 0  9999
2 30567  55.0000  72.0000 0000000   0.0000 342.0000 14.06899812    10
CTC1_L_00148008-01
1 30568U 24381JO  26070.40832176  .00000000  00000+0  00000-0 0  9995
2 30568  55.0000  84.0000 0000000   0.0000  84.0000 14.06899812    17
CTC1_L_00148008-02
1 30569U 24826YW  26070.40832176  .00000000  00000+0  00000-0 0  9990
2 30569  55.0000  84.0000 0000000   0.0000 174.0000 14.06899812    18
CTC1_L_00148008-03
1 30570U 24200LY  26070.40832176  .00000000  00000+0  00000-0 0  9998
2 30570  55.0000  84.0000 0000000   0.0000 264.0000 14.06899812    10
CTC1_L_00148008-04
1 30571U 22885OK  26070.40832176  .00000000  00000+0  00000-0 0  9996
2 30571  55.0000  84.0000 0000000   0.0000 354.0000 14.06899812    11
CTC1_L_00148009-01
1 30572U 25938SJ  26070.40832176  .00000000  00000+0  00000-0 0  9999
2 30572  55.0000  96.0000 0000000   0.0000  96.0000 14.06899812    18
CTC1_L_00148009-02
1 30573U 26443VC  26070.40832176  .00000000  00000+0  00000-0 0  9992
2 30573  55.0000  96.0000 0000000   0.0000 186.0000 14.06899812    19
CTC1_L_00148009-03
1 30574U 25498EX  26070.40832176  .00000000  00000+0  00000-0 0  9992
2 30574  55.0000  96.0000 0000000   0.0000 276.0000 14.06899812    10
CTC1_L_00148009-04
1 30575U 26678OE  26070.40832176  .00000000  00000+0  00000-0 0  9994
2 30575  55.0000  96.0000 0000000   0.0000   6.0000 14.06899812    12
CTC1_L_00148010-01
1 30576U 22865KK  26070.40832176  .00000000  00000+0  00000-0 0  9999
2 30576  55.0000 108.0000 0000000   0.0000 108.0000 14.06899812    10
CTC1_L_00148010-02
1 30577U 23993BE  26070.40832176  .00000000  00000+0  00000-0 0  9993
2 30577  55.0000 108.0000 0000000   0.0000 198.0000 14.06899812    10
CTC1_L_00148010-03
1 30578U 23009MG  26070.40832176  .00000000  00000+0  00000-0 0  9992
2 30578  55.0000 108.0000 0000000   0.0000 288.0000 14.06899812    11
CTC1_L_00148010-04
1 30579U 23109OA  26070.40832176  .00000000  00000+0  00000-0 0  9994
2 30579  55.0000 108.0000 0000000   0.0000  18.0000 14.06899812    13
CTC1_L_00148011-01
1 30580U 23348PI  26070.40832176  .00000000  00000+0  00000-0 0  9991
2 30580  55.0000 120.0000 0000000   0.0000 120.0000 14.06899812    13
CTC1_L_00148011-02
1 30581U 26673UB  26070.40832176  .00000000  00000+0  00000-0 0  9996
2 30581  55.0000 120.0000 0000000   0.0000 210.0000 14.06899812    14
CTC1_L_00148011-03
1 30582U 23199P   26070.40832176  .00000000  00000+0  00000-0 0  9997
2 30582  55.0000 120.0000 0000000   0.0000 300.0000 14.06899812    15
CTC1_L_00148011-04
1 30583U 22386UR  26070.40832176  .00000000  00000+0  00000-0 0  9995
2 30583  55.0000 120.0000 0000000   0.0000  30.0000 14.06899812    16
CTC1_L_00148012-01
1 30584U 24079GO  26070.40832176  .00000000  00000+0  00000-0 0  9997
2 30584  55.0000 132.0000 0000000   0.0000 132.0000 14.06899812    13
CTC1_L_00148012-02
1 30585U 25304BM  26070.40832176  .00000000  00000+0  00000-0 0  9990
2 30585  55.0000 132.0000 0000000   0.0000 222.0000 14.06899812    14
CTC1_L_00148012-03
1 30586U 22520HJ  26070.40832176  .00000000  00000+0  00000-0 0  9998
2 30586  55.0000 132.0000 0000000   0.0000 312.0000 14.06899812    15
CTC1_L_00148012-04
1 30587U 23906LQ  26070.40832176  .00000000  00000+0  00000-0 0  9998
2 30587  55.0000 132.0000 0000000   0.0000  42.0000 14.06899812    16
CTC1_L_00148013-01
1 30588U 25393TR  26070.40832176  .00000000  00000+0  00000-0 0  9991
2 30588  55.0000 144.0000 0000000   0.0000 144.0000 14.06899812    13
CTC1_L_00148013-02
1 30589U 24781HQ  26070.40832176  .00000000  00000+0  00000-0 0  9992
2 30589  55.0000 144.0000 0000000   0.0000 234.0000 14.06899812    14
CTC1_L_00148013-03
1 30590U 26094KI  26070.40832176  .00000000  00000+0  00000-0 0  9993
2 30590  55.0000 144.0000 0000000   0.0000 324.0000 14.06899812    16
CTC1_L_00148013-04
1 30591U 25414NF  26070.40832176  .00000000  00000+0  00000-0 0  9999
2 30591  55.0000 144.0000 0000000   0.0000  54.0000 14.06899812    17
CTC1_L_00148014-01
1 30592U 26180EU  26070.40832176  .00000000  00000+0  00000-0 0  9991
2 30592  55.0000 156.0000 0000000   0.0000 156.0000 14.06899812    14
CTC1_L_00148014-02
1 30593U 23314XF  26070.40832176  .00000000  00000+0  00000-0 0  9998
2 30593  55.0000 156.0000 0000000   0.0000 246.0000 14.06899812    15
CTC1_L_00148014-03
1 30594U 24260TG  26070.40832176  .00000000  00000+0  00000-0 0  9990
2 30594  55.0000 156.0000 0000000   0.0000 336.0000 14.06899812    16
CTC1_L_00148014-04
1 30595U 25023DG  26070.40832176  .00000000  00000+0  00000-0 0  9999
2 30595  55.0000 156.0000 0000000   0.0000  66.0000 14.06899812    17
CTC1_L_00148015-01
1 30596U 25744TB  26070.40832176  .00000000  00000+0  00000-0 0  9990
2 30596  55.0000 168.0000 0000000   0.0000 168.0000 14.06899812    14
CTC1_L_00148015-02
1 30597U 26274SH  26070.40832176  .00000000  00000+0  00000-0 0  9990
2 30597  55.0000 168.0000 0000000   0.0000 258.0000 14.06899812    15
CTC1_L_00148015-03
1 30598U 24456YO  26070.40832176  .00000000  00000+0  00000-0 0  9991
2 30598  55.0000 168.0000 0000000   0.0000 348.0000 14.06899812    16
CTC1_L_00148015-04
1 30599U 24572JJ  26070.40832176  .00000000  00000+0  00000-0 0  9991
2 30599  55.0000 168.0000 0000000   0.0000  78.0000 14.06899812    17
CTC1_L_00148016-01
1 30600U 26412FD  26070.40832176  .00000000  00000+0  00000-0 0  9999
2 30600  55.0000 180.0000 0000000   0.0000 180.0000 14.06899812    18
CTC1_L_00148016-02
1 30601U 23483JF  26070.40832176  .00000000  00000+0  00000-0 0  9995
2 30601  55.0000 180.0000 0000000   0.0000 270.0000 14.06899812    19
